NORAD_CAT_ID,OBJECT_NAME,OBJECT_TYPE,EPOCH,MEAN_MOTION,ECCENTRICITY,INCLINATION,RA_OF_ASC_NODE,ARG_OF_PERICENTER,MEAN_ANOMALY,BSTAR,MEAN_MOTION_DOT,MEAN_MOTION_DDOT,TLE_LINE0,TLE_LINE1,TLE_LINE2,SEMIMAJOR_AXIS,PERIOD,APOGEE,PERIGEE,DECAYED
50167.0,STARLINK-3271,PAYLOAD,2024-02-05 03:14:29,15.08836541,0.0001405,53.2168,86.8557,102.0754,258.0396,-1.4708e-05,-5.22e-06,0.0,0 STARLINK-3271,1 50167U 21125M   24036.13506325 -.00000522  00000-0 -14708-4 0  9995,2 50167  53.2168  86.8557 0001405 102.0754 258.0396 15.08836541120708,6917.891,95.438,540.728,538.784,0.0
50167.0,STARLINK-3271,PAYLOAD,2024-02-05 09:36:01,15.08841116,0.0001454,53.216,85.6708,94.7996,265.3163,1.8513e-05,7e-08,0.0,0 STARLINK-3271,1 50167U 21125M   24036.40001971  .00000007  00000-0  18513-4 0  9996,2 50167  53.2160  85.6708 0001454  94.7996 265.3163 15.08841116121229,6917.877,95.437,540.748,538.736,0.0
50167.0,STARLINK-3271,PAYLOAD,2024-02-06 09:26:46,15.08868625,0.0001556,53.2172,81.2094,97.8726,262.2443,0.00013717,1.897e-05,0.0,0 STARLINK-3271,1 50167U 21125M   24037.39359728  .00001897  00000-0  13717-3 0  9999,2 50167  53.2172  81.2094 0001556  97.8726 262.2443 15.08868625120893,6917.793,95.436,540.734,538.581,0.0
50167.0,STARLINK-3271,PAYLOAD,2024-02-07 12:28:21,15.08840321,0.0001418,53.217,76.1549,89.3789,270.7365,2.1928e-05,6.1e-07,0.0,0 STARLINK-3271,1 50167U 21125M   24038.51969771  .00000061  00000-0  21928-4 0  9995,2 50167  53.2170  76.1549 0001418  89.3789 270.7365 15.08840321121061,6917.879,95.438,540.725,538.763,0.0
50167.0,STARLINK-3271,PAYLOAD,2024-02-08 02:46:50,15.08843864,0.0001351,53.2166,73.4772,93.4325,266.6822,-0.00018602,-3.248e-05,0.0,0 STARLINK-3271,1 50167U 21125M   24039.11586482 -.00003248  00000-0 -18602-3 0  9992,2 50167  53.2166  73.4772 0001351  93.4325 266.6822 15.08843864121159,6917.869,95.437,540.668,538.799,0.0
50167.0,STARLINK-3271,PAYLOAD,2024-02-08 09:08:22,15.08846586,0.0001533,53.2173,72.2938,102.6304,257.4859,-0.00012602,-2.293e-05,0.0,0 STARLINK-3271,1 50167U 21125M   24039.38081943 -.00002293  00000-0 -12602-3 0  9996,2 50167  53.2173  72.2938 0001533 102.6304 257.4859 15.08846586121679,6917.86,95.437,540.786,538.665,0.0
50167.0,STARLINK-3271,PAYLOAD,2024-02-09 07:23:47,15.08836832,0.0001388,53.2173,68.1298,96.4949,263.6201,8.0653e-05,9.96e-06,0.0,0 STARLINK-3271,1 50167U 21125M   24040.30818412  .00000996  00000-0  80653-4 0  9997,2 50167  53.2173  68.1298 0001388  96.4949 263.6201 15.08836832121331,6917.89,95.438,540.715,538.795,0.0
50167.0,STARLINK-3271,PAYLOAD,2024-02-10 10:25:19,15.0885461,0.0001405,53.2164,63.071,85.8612,274.2541,0.00022999,3.376e-05,0.0,0 STARLINK-3271,1 50167U 21125M   24041.43425112  .00003376  00000-0  22999-3 0  9996,2 50167  53.2164  63.0710 0001405  85.8612 274.2541 15.08854610121501,6917.836,95.437,540.673,538.729,0.0
50167.0,STARLINK-3271,PAYLOAD,2024-02-11 05:29:58,15.08837757,0.000153,53.2178,59.502,101.8657,258.2507,-2.7122e-06,-3.31e-06,0.0,0 STARLINK-3271,1 50167U 21125M   24042.22914777 -.00000331  00000-0 -27122-5 0  9999,2 50167  53.2178  59.5020 0001530 101.8657 258.2507 15.08837757121627,6917.887,95.438,540.811,538.694,0.0
50167.0,STARLINK-3271,PAYLOAD,2024-02-11 08:40:44,15.08839449,0.0001524,53.2176,58.9074,94.7773,265.3393,1.249e-05,-8.9e-07,0.0,0 STARLINK-3271,1 50167U 21125M   24042.36162686 -.00000089  00000-0  12490-4 0  9998,2 50167  53.2176  58.9074 0001524  94.7773 265.3393 15.08839449122127,6917.882,95.438,540.801,538.693,0.0
50167.0,STARLINK-3271,PAYLOAD,2024-02-12 06:56:07,15.08857018,0.0001532,53.2171,54.7456,87.0169,273.0998,-1.0493e-05,-4.55e-06,0.0,0 STARLINK-3271,1 50167U 21125M   24043.28897754 -.00000455  00000-0 -10493-4 0  9990,2 50167  53.2171  54.7456 0001532  87.0169 273.0998 15.08857018121783,6917.828,95.436,540.753,538.634,0.0
50167.0,STARLINK-3271,PAYLOAD,2024-02-13 00:25:23,15.0883485,0.0002082,53.2156,51.4782,60.2341,299.8858,0.00025503,3.772e-05,0.0,0 STARLINK-3271,1 50167U 21125M   24044.01763049  .00003772  00000-0  25503-3 0  9991,2 50167  53.2156  51.4782 0002082  60.2341 299.8858 15.08834850121890,6917.896,95.438,541.201,538.321,0.0
50167.0,STARLINK-3271,PAYLOAD,2024-02-13 06:46:55,15.08836471,0.0001544,53.2167,50.284,84.4099,275.707,0.00012881,1.762e-05,0.0,0 STARLINK-3271,1 50167U 21125M   24044.28258978  .00001762  00000-0  12881-3 0  9992,2 50167  53.2167  50.2840 0001544  84.4099 275.7070 15.08836471122413,6917.891,95.438,540.824,538.688,0.0
50167.0,STARLINK-3271,PAYLOAD,2024-02-13 17:54:37,15.08836782,0.0001526,53.217,48.2028,86.3123,273.8044,0.0001113,1.484e-05,0.0,0 STARLINK-3271,1 50167U 21125M   24044.74627145  .00001484  00000-0  11130-3 0  9996,2 50167  53.2170  48.2028 0001526  86.3123 273.8044 15.08836782122483,6917.89,95.438,540.811,538.7,0.0
50167.0,STARLINK-3271,PAYLOAD,2024-02-14 05:02:19,15.08845621,0.0001623,53.2177,46.1211,92.247,267.8708,1.8094e-05,0.0,0.0,0 STARLINK-3271,1 50167U 21125M   24045.20994888 -.00000000  00000-0  18094-4 0  9990,2 50167  53.2177  46.1211 0001623  92.2470 267.8708 15.08845621122077,6917.863,95.437,540.851,538.605,0.0
50167.0,STARLINK-3271,PAYLOAD,2024-02-14 06:37:42,15.08847298,0.0001709,53.2186,45.8241,91.0673,269.0515,2.584e-05,1.23e-06,0.0,0 STARLINK-3271,1 50167U 21125M   24045.27618731  .00000123  00000-0  25840-4 0  9999,2 50167  53.2186  45.8241 0001709  91.0673 269.0515 15.08847298122569,6917.858,95.437,540.905,538.541,0.0
50167.0,STARLINK-3271,PAYLOAD,2024-02-15 03:17:44,15.08834375,0.00017,53.2188,41.9603,84.3474,275.7712,0.00010011,1.305e-05,0.0,0 STARLINK-3271,1 50167U 21125M   24046.13731641  .00001305  00000-0  10011-3 0  9997,2 50167  53.2188  41.9603 0001700  84.3474 275.7712 15.08834375122212,6917.898,95.438,540.939,538.587,0.0
50167.0,STARLINK-3271,PAYLOAD,2024-02-15 06:28:30,15.08834986,0.0001566,53.2189,41.3664,98.0781,262.0389,0.00010276,1.348e-05,0.0,0 STARLINK-3271,1 50167U 21125M   24046.26979505  .00001348  00000-0  10276-3 0  9994,2 50167  53.2189  41.3664 0001566  98.0781 262.0389 15.08834986122719,6917.896,95.438,540.844,538.677,0.0
50167.0,STARLINK-3271,PAYLOAD,2024-02-15 16:00:49,15.08834004,0.0001629,53.2184,39.5824,104.2366,255.8807,2.1037e-05,4.7e-07,0.0,0 STARLINK-3271,1 50167U 21125M   24046.66723894  .00000047  00000-0  21037-4 0  9999,2 50167  53.2184  39.5824 0001629 104.2366 255.8807 15.08834004122772,6917.899,95.438,540.891,538.637,0.0
50167.0,STARLINK-3271,PAYLOAD,2024-02-16 04:43:55,15.0882164,0.00014,53.2188,37.2066,92.2606,267.8546,8.9089e-05,1.13e-05,0.0,0 STARLINK-3271,1 50167U 21125M   24047.19716921  .00001130  00000-0  89089-4 0  9996,2 50167  53.2188  37.2066 0001400  92.2606 267.8546 15.08821640122370,6917.937,95.439,540.77,538.833,0.0
50167.0,STARLINK-3271,PAYLOAD,2024-02-16 06:19:18,15.08822637,0.0001412,53.2189,36.9089,93.4205,266.6948,9.0313e-05,1.149e-05,0.0,0 STARLINK-3271,1 50167U 21125M   24047.26340902  .00001149  00000-0  90313-4 0  9998,2 50167  53.2189  36.9089 0001412  93.4205 266.6948 15.08822637122867,6917.933,95.439,540.775,538.822,0.0
50167.0,STARLINK-3271,PAYLOAD,2024-02-16 22:13:08,15.0884033,0.0001727,53.2213,33.9339,107.1792,252.939,0.00012929,1.77e-05,0.0,0 STARLINK-3271,1 50167U 21125M   24047.92579829  .00001770  00000-0  12929-3 0  9999,2 50167  53.2213  33.9339 0001727 107.1792 252.9390 15.08840330122963,6917.879,95.438,540.939,538.55,0.0
50167.0,STARLINK-3271,PAYLOAD,2024-02-17 02:59:18,15.08839962,0.0001774,53.2212,33.0418,111.1286,248.9896,0.0001288,1.762e-05,0.0,0 STARLINK-3271,1 50167U 21125M   24048.12451884  .00001762  00000-0  12880-3 0  9999,2 50167  53.2212  33.0418 0001774 111.1286 248.9896 15.08839962122512,6917.881,95.438,540.973,538.518,0.0
50167.0,STARLINK-3271,PAYLOAD,2024-02-17 06:10:04,15.08847181,0.0001566,53.2192,32.446,107.9906,252.1257,0.00017874,2.558e-05,0.0,0 STARLINK-3271,1 50167U 21125M   24048.25699374  .00002558  00000-0  17874-3 0  9993,2 50167  53.2192  32.4460 0001566 107.9906 252.1257 15.08847181122532,6917.858,95.437,540.807,538.64,0.0
50167.0,STARLINK-3271,PAYLOAD,2024-02-17 22:03:55,15.08841014,0.0001795,53.2198,29.4737,109.949,250.1696,0.000201,2.912e-05,0.0,0 STARLINK-3271,1 50167U 21125M   24048.91939696  .00002912  00000-0  20100-3 0  9990,2 50167  53.2198  29.4737 0001795 109.9490 250.1696 15.08841014123114,6917.877,95.437,540.984,538.501,0.0
50167.0,STARLINK-3271,PAYLOAD,2024-02-18 04:25:28,15.08839791,0.0001539,53.2185,28.2799,101.4016,258.7149,0.0001345,1.853e-05,0.0,0 STARLINK-3271,1 50167U 21125M   24049.18435983  .00001853  00000-0  13450-3 0  9993,2 50167  53.2185  28.2799 0001539 101.4016 258.7149 15.08839791122678,6917.881,95.438,540.811,538.681,0.0
50167.0,STARLINK-3271,PAYLOAD,2024-02-18 21:54:43,15.08845594,0.0001565,53.2188,25.0092,99.6791,260.4378,2.0073e-05,3.2e-07,0.0,0 STARLINK-3271,1 50167U 21125M   24049.91299908  .00000032  00000-0  20073-4 0  9997,2 50167  53.2188  25.0092 0001565  99.6791 260.4378 15.08845594123267,6917.863,95.437,540.811,538.646,0.0
50167.0,STARLINK-3271,PAYLOAD,2024-02-19 07:27:00,15.08860277,0.000136,53.2193,23.2235,94.2011,265.9137,3.6316e-05,2.9e-06,0.0,0 STARLINK-3271,1 50167U 21125M   24050.31042638  .00000290  00000-0  36316-4 0  9992,2 50167  53.2193  23.2235 0001360  94.2011 265.9137 15.08860277122842,6917.818,95.436,540.624,538.743,0.0
50167.0,STARLINK-3271,PAYLOAD,2024-02-19 15:23:57,15.0883725,0.0001423,53.2203,21.7386,85.0182,275.0972,-1.5676e-05,-5.37e-06,0.0,0 STARLINK-3271,1 50167U 21125M   24050.64164270 -.00000537  00000-0 -15676-4 0  9997,2 50167  53.2203  21.7386 0001423  85.0182 275.0972 15.08837250122890,6917.889,95.438,540.738,538.769,0.0
50167.0,STARLINK-3271,PAYLOAD,2024-02-19 21:45:30,15.08833565,0.0001795,53.2186,20.5492,83.4441,276.6755,-5.739e-06,-3.79e-06,0.0,0 STARLINK-3271,1 50167U 21125M   24050.90660627 -.00000379  00000-0 -57390-5 0  9997,2 50167  53.2186  20.5492 0001795  83.4441 276.6755 15.08833565123417,6917.9,95.438,541.007,538.523,0.0
